OBJECT_NAME,OBJECT_ID,EPOCH,MEAN_MOTION,ECCENTRICITY,INCLINATION,RA_OF_ASC_NODE,ARG_OF_PERICENTER,MEAN_ANOMALY,EPHEMERIS_TYPE,CLASSIFICATION_TYPE,NORAD_CAT_ID,ELEMENT_SET_NO,REV_AT_EPOCH,BSTAR,MEAN_MOTION_DOT,MEAN_MOTION_DDOT
ONEWEB-0671,2023-029AL,2026-06-03T11:48:52.846848,13.19727806,.0001664,87.9144,307.7055,95.0299,265.1023,0,U,55830,999,15709,.55641E-3,.236E-5,0
ONEWEB-0672,2023-029AM,2026-06-03T07:20:00.283776,13.20770462,.00021497,87.9202,277.1999,108.0971,252.0397,0,U,55831,999,15931,.21406518E-3,.1E-5,0
ONEWEB-0673,2023-029AN,2026-06-03T11:15:55.971648,13.19725766,.00017726,87.9168,307.7007,90.3964,269.7372,0,U,55832,999,15709,.1233617E-3,.62E-6,0
ONEWEB-0674,2023-029AP,2026-06-03T07:51:05.015232,13.14503282,.00018262,87.8946,292.4804,91.2773,268.8566,0,U,55833,999,15759,-.10309717E-3,-.25E-6,0
ONEWEB-0675,2023-029AQ,2026-06-03T11:37:31.823904,13.19727388,.00019309,87.9157,307.7084,105.8365,254.2980,0,U,55834,999,15711,-.38805876E-4,-.3E-7,0
ONEWEB-0720,2023-029AR,2026-06-03T11:26:08.910528,13.19726764,.00015532,87.9162,307.7110,107.6174,252.5128,0,U,55835,999,15703,-.16971075E-4,.6E-7,0
ONEWEB-0537,2023-043A,2026-06-03T14:11:14.710272,13.16593697,.000221,87.9107,231.4707,104.1348,256.0029,0,U,56046,999,15717,.14758959E-3,.69E-6,0
ONEWEB-0538,2023-043B,2026-06-03T14:02:07.685088,13.16594053,.00019493,87.9097,231.4764,107.0666,253.0679,0,U,56047,999,15718,.47340459E-3,.194E-5,0
ONEWEB-0546,2023-043C,2026-06-03T15:33:19.644192,13.16594087,.0002675,87.9106,231.4618,106.6075,253.5350,0,U,56048,999,15718,.19263E-3,.86E-6,0
ONEWEB-0547,2023-043D,2026-06-03T14:56:46.830336,13.21826657,.0001873,87.9262,246.6724,104.5947,255.5394,0,U,56049,999,15643,.62346E-3,.271E-5,0
ONEWEB-0548,2023-043E,2026-06-03T14:19:13.595232,13.16595225,.00022258,87.9104,231.4687,87.9917,272.1469,0,U,56050,999,15717,.21078831E-3,.93E-6,0
ONEWEB-0549,2023-043F,2026-06-03T14:48:18.828576,13.21824034,.000186,87.9257,246.6806,110.4910,249.6424,0,U,56051,999,15643,-.21224E-3,-.75E-6,0
ONEWEB-0550,2023-043G,2026-06-03T07:12:56.387232,13.21825109,.00020368,87.9258,246.7408,94.9760,265.1607,0,U,56052,999,15639,.15312998E-3,.76E-6,0
ONEWEB-0551,2023-043H,2026-06-03T07:30:25.989120,13.15548304,.00017404,87.8997,261.9909,112.7691,247.3623,0,U,56053,999,15457,-.15636908E-3,-.46E-6,0
ONEWEB-0552,2023-043J,2026-06-03T07:05:39.928992,13.21827794,.0001839,87.9257,246.7481,96.6213,263.5131,0,U,56054,999,15639,.2265925E-3,.107E-5,0
ONEWEB-0553,2023-043K,2026-06-03T13:53:00.228768,13.16593314,.00024885,87.9105,231.4767,101.9137,258.2273,0,U,56055,999,15718,.28180409E-4,.24E-6,0
ONEWEB-0554,2023-043L,2026-06-03T15:24:12.408192,13.16593750,.0002217,87.9103,231.4729,93.1269,267.0116,0,U,56056,999,15717,-.26257E-5,.12E-6,0
ONEWEB-0555,2023-043M,2026-06-03T14:29:28.898016,13.16594322,.00026082,87.9107,231.4680,105.9199,254.2220,0,U,56057,999,15717,.11433644E-2,.45E-5,0
ONEWEB-0557,2023-043N,2026-06-03T14:49:59.697984,13.16593525,.0003173,87.9104,231.4753,85.8871,274.2622,0,U,56058,999,15717,-.20343E-3,-.65E-6,0
ONEWEB-0558,2023-043P,2026-06-03T06:55:58.159776,13.21826736,.0001937,87.9258,246.7437,109.0233,251.1111,0,U,56059,999,15640,.18746077E-3,.9E-6,0
ONEWEB-0559,2023-043Q,2026-06-03T06:39:00.265824,13.21826587,.00017908,87.9258,246.7402,102.5011,257.6324,0,U,56060,999,15641,.26469121E-3,.122E-5,0
ONEWEB-0566,2023-043R,2026-06-03T15:34:20.980416,13.21826032,.0001695,87.9258,246.6645,104.8205,255.3116,0,U,56061,999,15644,.48822E-4,.33E-6,0
ONEWEB-0568,2023-043S,2026-06-03T15:15:04.963104,13.16593264,.0002374,87.9105,231.4622,102.5521,257.5875,0,U,56062,999,15719,-.23885E-4,.4E-7,0
ONEWEB-0574,2023-043T,2026-06-03T15:24:38.786112,13.21826818,.000215,87.9268,246.6676,95.3399,264.7980,0,U,56063,999,15648,-.52038E-4,-.8E-7,0
ONEWEB-0575,2023-043U,2026-06-03T15:05:57.786720,13.16593570,.0002447,87.9102,231.4596,92.3346,267.8065,0,U,56064,999,15718,-.15894E-3,-.48E-6,0
ONEWEB-0576,2023-043V,2026-06-03T14:38:35.517984,13.16593459,.00022403,87.9108,231.4704,95.9159,264.2227,0,U,56065,999,15717,.3287139E-5,.14E-6,0
ONEWEB-0577,2023-043W,2026-06-03T14:47:42.964800,13.16593010,.0002612,87.9106,231.4668,85.2698,274.8731,0,U,56066,999,15720,-.17097E-4,.6E-7,0
ONEWEB-0578,2023-043X,2026-06-03T15:05:17.386944,13.21825725,.0002321,87.9260,246.6694,102.7537,257.3856,0,U,56067,999,15644,.44776E-4,.32E-6,0
ONEWEB-0579,2023-043Y,2026-06-03T14:53:10.725792,13.21825581,.0001742,87.9268,246.6673,96.4524,263.6808,0,U,56068,999,15645,.91904E-5,.17E-6,0
ONEWEB-0581,2023-043Z,2026-06-03T05:49:39.151200,13.16595330,.0002398,87.9104,231.5525,87.4661,272.6744,0,U,56069,999,15712,-.15428E-3,-.46E-6,0
